*******************************************************************************
Ephemeris / WWW_USER Mon Mar 10 08:32:47 2025 Pasadena, USA      / Horizons    
*******************************************************************************
Target body name: 341764 (2007 VZ326)             {source: JPL#18}
Center body name: Earth (399)                     {source: DE441}
Center-site name: Mauna Kea
*******************************************************************************
Start time      : A.D. 2018-Sep-25 04:25:00.0000 UT      
Stop  time      : A.D. 2018-Sep-25 16:02:00.0000 UT      
Step-size       : 1 minutes
*******************************************************************************
Target pole/equ : undefined
Target radii    : undefined                                                    
Center geodetic : 204.5278, 19.8260847, 4.21024   {E-lon(deg),Lat(deg),Alt(km)}
Center cylindric: 204.5278, 6006.35451, 2151.0229 {E-lon(deg),Dxy(km),Dz(km)}
Center pole/equ : ITRF93                          {East-longitude positive}
Center radii    : 6378.137, 6378.137, 6356.752 km {Equator_a, b, pole_c}       
Target primary  : Sun
Vis. interferer : MOON (R_eq= 1737.400) km        {source: DE441}
Rel. light bend : Sun                             {source: DE441}
Rel. lght bnd GM: 1.3271E+11 km^3/s^2                                          
Small-body perts: Yes                             {source: SB441-N16}
Atmos refraction: NO (AIRLESS)
RA format       : HMS
Time format     : CAL 
Calendar mode   : Mixed Julian/Gregorian
RTS-only print  : NO       
EOP file        : eop.250307.p250603                                           
EOP coverage    : DATA-BASED 1962-JAN-20 TO 2025-MAR-07. PREDICTS-> 2025-JUN-02
Units conversion: 1 au= 149597870.700 km, c= 299792.458 km/s, 1 day= 86400.0 s 
Table cut-offs 1: Elevation (-90.0deg=NO ),Airmass (>38.000=NO), Daylight (YES)
Table cut-offs 2: Solar elongation (  0.0,180.0=NO ),Local Hour Angle( 0.0=NO )
Table cut-offs 3: RA/DEC angular rate (     0.0=NO )                           
*******************************************************************************
Initial IAU76/J2000 heliocentric ecliptic osculating elements (au, days, deg.):
  EPOCH=  2458738.5 ! 2019-Sep-12.00 (TDB)         Residual RMS= .13886        
   EC= .1008373990761695   QR= 2.768240023430626   TP= 2458584.3440952813      
   OM= 228.7009686323446   W=  245.4004729743531   IN= 4.232471987434818       
  Equivalent ICRF heliocentric cartesian coordinates (au, au/d):
   X=-2.388613100272569E+00  Y= 1.431394755664809E+00  Z= 3.975078424350988E-01
  VX=-6.081658482309184E-03 VY=-8.102092841560219E-03 VZ=-3.413222734767960E-03
Asteroid physical parameters (km, seconds, rotational period in hours):        
   GM= n.a.                RAD= n.a.               ROTPER= n.a.                
   H= 16.54                G= .150                 B-V= n.a.                   
                           ALBEDO= n.a.            STYP= n.a.                  
*******************************************************************************
 Date__(UT)__HR:MN     R.A._________(ICRF)_________DEC
******************************************************
$$SOE
 2018-Sep-25 10:34  m  06 05 02.121952 +21 44 33.57169
 2018-Sep-25 10:35  m  06 05 02.159063 +21 44 33.51146
 2018-Sep-25 10:36  m  06 05 02.196170 +21 44 33.45124
 2018-Sep-25 10:37  m  06 05 02.233272 +21 44 33.39101
 2018-Sep-25 10:38  m  06 05 02.270369 +21 44 33.33077
 2018-Sep-25 10:39  m  06 05 02.307461 +21 44 33.27054
 2018-Sep-25 10:40  m  06 05 02.344548 +21 44 33.21030
 2018-Sep-25 10:41  m  06 05 02.381631 +21 44 33.15005
 2018-Sep-25 10:42  m  06 05 02.418709 +21 44 33.08980
 2018-Sep-25 10:43  m  06 05 02.455782 +21 44 33.02955
 2018-Sep-25 10:44  m  06 05 02.492850 +21 44 32.96929
 2018-Sep-25 10:45  m  06 05 02.529914 +21 44 32.90903
 2018-Sep-25 10:46  m  06 05 02.566973 +21 44 32.84877
 2018-Sep-25 10:47  m  06 05 02.604027 +21 44 32.78850
 2018-Sep-25 10:48  m  06 05 02.641077 +21 44 32.72823
 2018-Sep-25 10:49  m  06 05 02.678121 +21 44 32.66795
 2018-Sep-25 10:50  m  06 05 02.715161 +21 44 32.60767
 2018-Sep-25 10:51  m  06 05 02.752196 +21 44 32.54738
 2018-Sep-25 10:52  m  06 05 02.789227 +21 44 32.48709
 2018-Sep-25 10:53  m  06 05 02.826253 +21 44 32.42679
 2018-Sep-25 10:54  m  06 05 02.863274 +21 44 32.36649
 2018-Sep-25 10:55  m  06 05 02.900290 +21 44 32.30618
 2018-Sep-25 10:56  m  06 05 02.937302 +21 44 32.24587
 2018-Sep-25 10:57  m  06 05 02.974309 +21 44 32.18555
 2018-Sep-25 10:58  m  06 05 03.011311 +21 44 32.12523
 2018-Sep-25 10:59  m  06 05 03.048308 +21 44 32.06490
 2018-Sep-25 11:00  m  06 05 03.085301 +21 44 32.00456
 2018-Sep-25 11:01  m  06 05 03.122289 +21 44 31.94422
 2018-Sep-25 11:02  m  06 05 03.159273 +21 44 31.88388
 2018-Sep-25 11:03  m  06 05 03.196251 +21 44 31.82353
 2018-Sep-25 11:04  m  06 05 03.233225 +21 44 31.76317
 2018-Sep-25 11:05  m  06 05 03.270195 +21 44 31.70280
 2018-Sep-25 11:06  m  06 05 03.307159 +21 44 31.64243
 2018-Sep-25 11:07  m  06 05 03.344119 +21 44 31.58206
 2018-Sep-25 11:08  m  06 05 03.381075 +21 44 31.52168
 2018-Sep-25 11:09  m  06 05 03.418025 +21 44 31.46129
 2018-Sep-25 11:10  m  06 05 03.454971 +21 44 31.40089
 2018-Sep-25 11:11  m  06 05 03.491913 +21 44 31.34049
 2018-Sep-25 11:12  m  06 05 03.528849 +21 44 31.28008
 2018-Sep-25 11:13  m  06 05 03.565782 +21 44 31.21967
 2018-Sep-25 11:14  m  06 05 03.602709 +21 44 31.15924
 2018-Sep-25 11:15  m  06 05 03.639632 +21 44 31.09881
 2018-Sep-25 11:16  m  06 05 03.676550 +21 44 31.03838
 2018-Sep-25 11:17  m  06 05 03.713463 +21 44 30.97793
 2018-Sep-25 11:18  m  06 05 03.750372 +21 44 30.91748
 2018-Sep-25 11:19  m  06 05 03.787277 +21 44 30.85703
 2018-Sep-25 11:20  m  06 05 03.824176 +21 44 30.79656
 2018-Sep-25 11:21  m  06 05 03.861072 +21 44 30.73609
 2018-Sep-25 11:22  m  06 05 03.897962 +21 44 30.67561
 2018-Sep-25 11:23  m  06 05 03.934848 +21 44 30.61512
 2018-Sep-25 11:24  m  06 05 03.971729 +21 44 30.55462
 2018-Sep-25 11:25  m  06 05 04.008606 +21 44 30.49412
 2018-Sep-25 11:26  m  06 05 04.045478 +21 44 30.43360
 2018-Sep-25 11:27  m  06 05 04.082346 +21 44 30.37308
 2018-Sep-25 11:28  m  06 05 04.119209 +21 44 30.31255
 2018-Sep-25 11:29  m  06 05 04.156067 +21 44 30.25202
 2018-Sep-25 11:30  m  06 05 04.192921 +21 44 30.19147
 2018-Sep-25 11:31  m  06 05 04.229771 +21 44 30.13092
 2018-Sep-25 11:32  m  06 05 04.266616 +21 44 30.07036
 2018-Sep-25 11:33  m  06 05 04.303456 +21 44 30.00978
 2018-Sep-25 11:34  m  06 05 04.340292 +21 44 29.94921
 2018-Sep-25 11:35  m  06 05 04.377123 +21 44 29.88862
 2018-Sep-25 11:36  m  06 05 04.413950 +21 44 29.82802
 2018-Sep-25 11:37  m  06 05 04.450772 +21 44 29.76741
 2018-Sep-25 11:38  m  06 05 04.487590 +21 44 29.70680
 2018-Sep-25 11:39  m  06 05 04.524403 +21 44 29.64617
 2018-Sep-25 11:40  m  06 05 04.561212 +21 44 29.58554
 2018-Sep-25 11:41  m  06 05 04.598017 +21 44 29.52489
 2018-Sep-25 11:42  m  06 05 04.634816 +21 44 29.46424
 2018-Sep-25 11:43  m  06 05 04.671612 +21 44 29.40358
 2018-Sep-25 11:44  m  06 05 04.708403 +21 44 29.34291
 2018-Sep-25 11:45  m  06 05 04.745189 +21 44 29.28222
 2018-Sep-25 11:46  m  06 05 04.781971 +21 44 29.22153
 2018-Sep-25 11:47  m  06 05 04.818749 +21 44 29.16083
 2018-Sep-25 11:48  m  06 05 04.855522 +21 44 29.10012
 2018-Sep-25 11:49  m  06 05 04.892291 +21 44 29.03940
 2018-Sep-25 11:50  m  06 05 04.929055 +21 44 28.97867
 2018-Sep-25 11:51  m  06 05 04.965815 +21 44 28.91792
 2018-Sep-25 11:52  m  06 05 05.002571 +21 44 28.85717
 2018-Sep-25 11:53  m  06 05 05.039322 +21 44 28.79641
 2018-Sep-25 11:54  m  06 05 05.076069 +21 44 28.73563
 2018-Sep-25 11:55  m  06 05 05.112812 +21 44 28.67485
 2018-Sep-25 11:56  m  06 05 05.149550 +21 44 28.61406
 2018-Sep-25 11:57  m  06 05 05.186283 +21 44 28.55325
 2018-Sep-25 11:58  m  06 05 05.223013 +21 44 28.49243
 2018-Sep-25 11:59  m  06 05 05.259738 +21 44 28.43161
 2018-Sep-25 12:00  m  06 05 05.296459 +21 44 28.37077
 2018-Sep-25 12:01  m  06 05 05.333175 +21 44 28.30992
 2018-Sep-25 12:02  m  06 05 05.369887 +21 44 28.24906
 2018-Sep-25 12:03  m  06 05 05.406595 +21 44 28.18818
 2018-Sep-25 12:04  m  06 05 05.443299 +21 44 28.12730
 2018-Sep-25 12:05  m  06 05 05.479998 +21 44 28.06641
 2018-Sep-25 12:06  m  06 05 05.516693 +21 44 28.00550
 2018-Sep-25 12:07  m  06 05 05.553384 +21 44 27.94458
 2018-Sep-25 12:08  m  06 05 05.590070 +21 44 27.88365
 2018-Sep-25 12:09  m  06 05 05.626752 +21 44 27.82271
 2018-Sep-25 12:10  m  06 05 05.663430 +21 44 27.76176
 2018-Sep-25 12:11  m  06 05 05.700104 +21 44 27.70079
 2018-Sep-25 12:12  m  06 05 05.736773 +21 44 27.63981
 2018-Sep-25 12:13  m  06 05 05.773439 +21 44 27.57882
 2018-Sep-25 12:14  m  06 05 05.810100 +21 44 27.51782
 2018-Sep-25 12:15  m  06 05 05.846757 +21 44 27.45681
 2018-Sep-25 12:16  m  06 05 05.883409 +21 44 27.39578
 2018-Sep-25 12:17  m  06 05 05.920058 +21 44 27.33474
 2018-Sep-25 12:18  m  06 05 05.956702 +21 44 27.27369
 2018-Sep-25 12:19  m  06 05 05.993343 +21 44 27.21262
 2018-Sep-25 12:20  m  06 05 06.029979 +21 44 27.15155
 2018-Sep-25 12:21  m  06 05 06.066611 +21 44 27.09046
 2018-Sep-25 12:22  m  06 05 06.103238 +21 44 27.02935
 2018-Sep-25 12:23  m  06 05 06.139862 +21 44 26.96824
 2018-Sep-25 12:24  m  06 05 06.176482 +21 44 26.90711
 2018-Sep-25 12:25  m  06 05 06.213097 +21 44 26.84596
 2018-Sep-25 12:26  m  06 05 06.249709 +21 44 26.78481
 2018-Sep-25 12:27  m  06 05 06.286316 +21 44 26.72364
 2018-Sep-25 12:28  m  06 05 06.322919 +21 44 26.66246
 2018-Sep-25 12:29  m  06 05 06.359519 +21 44 26.60126
 2018-Sep-25 12:30  m  06 05 06.396114 +21 44 26.54005
 2018-Sep-25 12:31  m  06 05 06.432705 +21 44 26.47883
 2018-Sep-25 12:32  m  06 05 06.469292 +21 44 26.41759
 2018-Sep-25 12:33  m  06 05 06.505875 +21 44 26.35634
 2018-Sep-25 12:34  m  06 05 06.542455 +21 44 26.29508
 2018-Sep-25 12:35  m  06 05 06.579030 +21 44 26.23380
 2018-Sep-25 12:36  m  06 05 06.615601 +21 44 26.17251
